0 GLOBALSTAR M026
1 25873U 99041B   13281.48176821 -.00000082  00000-0  12391-3 0  2533
2 25873 052.0078 359.3280 0000487 193.5769 279.6072 12.62268188655337
0 GLOBALSTAR M026
1 25873U 99041B   13282.50866527 -.00000078  00000-0  14369-3 0  2549
2 25873 052.0077 356.2022 0000466 201.2485 260.5933 12.62268155655468
0 GLOBALSTAR M026
1 25873U 99041B   13283.54615324 -.00000067  00000-0  20773-3 0  2556
2 25873 052.0075 353.0442 0000447 207.2873 291.3628 12.62268160655596
0 GLOBALSTAR M026
1 25873U 99041B   13286.13259685 -.00000051  00000-0  29371-3 0  2576
2 25873 052.0072 345.1712 0000420 227.5612 150.0284 12.62268288655929
0 GLOBALSTAR M026
1 25873U 99041B   13287.16832882 -.00000062  00000-0  23352-3 0  2582
2 25873 052.0070 342.0185 0000420 236.9079 169.5060 12.62268373656055
0 GLOBALSTAR M026
1 25873U 99041B   13288.44723664 -.00000073  00000-0  17194-3 0  2591
2 25873 052.0068 338.1254 0000418 246.8652 213.9419 12.62268437656210
0 GLOBALSTAR M026
1 25873U 99041B   13289.47336558 -.00000084  00000-0  11239-3 0  2605
2 25873 052.0067 335.0017 0000417 253.9063 192.0671 12.62268575656340
0 GLOBALSTAR M026
1 25873U 99041B   13290.51750021 -.00000083  00000-0  11509-3 0  2617
2 25873 052.0065 331.8232 0000420 259.9118 253.0892 12.62268690656477
0 GLOBALSTAR M026
1 25873U 99041B   13291.62415014 -.00000089  00000-0  85019-4 0  2625
2 25873 052.0065 328.4544 0000442 270.5184 233.7283 12.62268777656612
0 GLOBALSTAR M026
1 25873U 99041B   13292.65549824 -.00000089  00000-0  84566-4 0  2633
2 25873 052.0064 325.3149 0000460 278.0796 235.0630 12.62268794656744
0 GLOBALSTAR M026
1 25873U 99041B   13294.14090260 -.00000080  00000-0  13092-3 0  2641
2 25873 052.0063 320.7931 0000492 288.8741 137.4754 12.62268799656933
0 GLOBALSTAR M026
1 25873U 99041B   13295.17270887 -.00000072  00000-0  17558-3 0  2653
2 25873 052.0062 317.6522 0000507 294.4950 142.8340 12.62268785657066
